STARLINK-1625
1 26131C 20057Q   21325.13527954  .00001109  00000-0  74316-4 0  3257
2 26131  53.0525 142.6304 0001811  82.7233 307.5130 15.06403192    14
